{"type": "FeatureCollection", "features": [ {"type": "Feature", "properties": {"norad_id": 28659, "name": "DIRECTV 8", "group": "intelsat", "lat": -0.0215103715565187, "lon": -86.54965801367449, "alt_km": 35773.42512673593, "timestamp": "2025-12-13T20:38:50.662740+00:00", "meta": {"OBJECT_NAME": "DIRECTV 8", "OBJECT_ID": "2005-019A", "EPOCH": "2025-12-13T07:09:25.060608", "MEAN_MOTION": 1.00271994, "ECCENTRICITY": 0.00029881, "INCLINATION": 0.0229, "RA_OF_ASC_NODE": 66.6292, "ARG_OF_PERICENTER": 200.7634, "MEAN_ANOMALY": 163.1511, "EPHEMERIS_TYPE": 0, "CLASSIFICATION_TYPE": "U", "NORAD_CAT_ID": 28659, "ELEMENT_SET_NO": 999, "REV_AT_EPOCH": 7520, "BSTAR": 0, "MEAN_MOTION_DOT": 1.5e-07, "MEAN_MOTION_DDOT": 0}, "tle": {"line1": "1 28659U 05019A   25347.29820672  .00000015  00000+0  00000+0 0  9996", "line2": "2 28659   0.0229  66.6292 0002988 200.7634 163.1511  1.00271994 75200"}}, "geometry": {"type": "Point", "coordinates": [-86.54965801367449, -0.0215103715565187]}}, {"type": "Feature", "properties": {"norad_id": 28702, "name": "GALAXY 28 (G-28)", "group": "intelsat", "lat": -1.919821793345695, "lon": -56.20821033660972, "alt_km": 35777.01594484738, "timestamp": "2025-12-13T20:38:50.662753+00:00", "meta": {"OBJECT_NAME": "GALAXY 28 (G-28)", "OBJECT_ID": "2005-022A", "EPOCH": "2025-12-13T06:38:38.641632", "MEAN_MOTION": 1.00271727, "ECCENTRICITY": 0.00028187, "INCLINATION": 2.8202, "RA_OF_ASC_NODE": 81.2761, "ARG_OF_PERICENTER": 184.3592, "MEAN_ANOMALY": 187.55, "EPHEMERIS_TYPE": 0, "CLASSIFICATION_TYPE": "U", "NORAD_CAT_ID": 28702, "ELEMENT_SET_NO": 999, "REV_AT_EPOCH": 5011, "BSTAR": 0, "MEAN_MOTION_DOT": -1.74e-06, "MEAN_MOTION_DDOT": 0}, "tle": {"line1": "1 28702U 05022A   25347.27683613 -.00000174  00000+0  00000+0 0  9996", "line2": "2 28702   2.8202  81.2761 0002818 184.3592 187.5500  1.00271727 50111"}}, "geometry": {"type": "Point", "coordinates": [-56.20821033660972, -1.919821793345695]}}, {"type": "Feature", "properties": {"norad_id": 29236, "name": "GALAXY 16 (G-16)", "group": "intelsat", "lat": -0.000622146596572692, "lon": -66.49684085588484, "alt_km": 35776.6840870935, "timestamp": "2025-12-13T20:38:50.662765+00:00", "meta": {"OBJECT_NAME": "GALAXY 16 (G-16)", "OBJECT_ID": "2006-023A", "EPOCH": "2025-12-13T07:06:14.793984", "MEAN_MOTION": 1.00272354, "ECCENTRICITY": 0.0002596, "INCLINATION": 0.0524, "RA_OF_ASC_NODE": 135.2976, "ARG_OF_PERICENTER": 125.5592, "MEAN_ANOMALY": 188.9317, "EPHEMERIS_TYPE": 0, "CLASSIFICATION_TYPE": "U", "NORAD_CAT_ID": 29236, "ELEMENT_SET_NO": 999, "REV_AT_EPOCH": 7110, "BSTAR": 0, "MEAN_MOTION_DOT": -1.13e-06, "MEAN_MOTION_DDOT": 0}, "tle": {"line1": "1 29236U 06023A   25347.29600456 -.00000113  00000+0  00000+0 0  9990", "line2": "2 29236   0.0524 135.2976 0002596 125.5592 188.9317  1.00272354 71109"}}, "geometry": {"type": "Point", "coordinates": [-66.49684085588484, -0.000622146596572692]}}, {"type": "Feature", "properties": {"norad_id": 29494, "name": "DIRECTV 9S", "group": "intelsat", "lat": -0.9297689048294431, "lon": -68.71839868295753, "alt_km": 35774.85704831903, "timestamp": "2025-12-13T20:38:50.662777+00:00", "meta": {"OBJECT_NAME": "DIRECTV 9S", "OBJECT_ID": "2006-043A", "EPOCH": "2025-12-13T07:06:38.794176", "MEAN_MOTION": 1.0027191, "ECCENTRICITY": 0.00029661, "INCLINATION": 1.9418, "RA_OF_ASC_NODE": 83.2052, "ARG_OF_PERICENTER": 182.5376, "MEAN_ANOMALY": 181.9374, "EPHEMERIS_TYPE": 0, "CLASSIFICATION_TYPE": "U", "NORAD_CAT_ID": 29494, "ELEMENT_SET_NO": 999, "REV_AT_EPOCH": 4952, "BSTAR": 0, "MEAN_MOTION_DOT": -1e-06, "MEAN_MOTION_DDOT": 0}, "tle": {"line1": "1 29494U 06043A   25347.29628234 -.00000100  00000+0  00000+0 0  9998", "line2": "2 29494   1.9418  83.2052 0002966 182.5376 181.9374  1.00271910 49522"}}, "geometry": {"type": "Point", "coordinates": [-68.71839868295753, -0.9297689048294431]}}, {"type": "Feature", "properties": {"norad_id": 31307, "name": "GALAXY 17 (G-17)", "group": "intelsat", "lat": -1.789453344697573, "lon": -52.45567838008219, "alt_km": 35774.029071424404, "timestamp": "2025-12-13T20:38:50.662790+00:00", "meta": {"OBJECT_NAME": "GALAXY 17 (G-17)", "OBJECT_ID": "2007-016B", "EPOCH": "2025-12-13T04:29:08.293056", "MEAN_MOTION": 1.00272443, "ECCENTRICITY": 0.00057852, "INCLINATION": 2.5014, "RA_OF_ASC_NODE": 82.2803, "ARG_OF_PERICENTER": 164.913, "MEAN_ANOMALY": 177.2332, "EPHEMERIS_TYPE": 0, "CLASSIFICATION_TYPE": "U", "NORAD_CAT_ID": 31307, "ELEMENT_SET_NO": 999, "REV_AT_EPOCH": 6793, "BSTAR": 0, "MEAN_MOTION_DOT": -1.93e-06, "MEAN_MOTION_DDOT": 0}, "tle": {"line1": "1 31307U 07016B   25347.18690154 -.00000193  00000+0  00000+0 0  9995", "line2": "2 31307   2.5014  82.2803 0005785 164.9130 177.2332  1.00272443 67933"}}, "geometry": {"type": "Point", "coordinates": [-52.45567838008219, -1.789453344697573]}}, {"type": "Feature", "properties": {"norad_id": 31862, "name": "DIRECTV 10", "group": "intelsat", "lat": 0.003498496772509895, "lon": -70.2944933220994, "alt_km": 35785.887336344356, "timestamp": "2025-12-13T20:38:50.662808+00:00", "meta": {"OBJECT_NAME": "DIRECTV 10", "OBJECT_ID": "2007-032A", "EPOCH": "2025-12-12T23:15:53.301024", "MEAN_MOTION": 1.0027112, "ECCENTRICITY": 2.941e-05, "INCLINATION": 0.0079, "RA_OF_ASC_NODE": 209.5146, "ARG_OF_PERICENTER": 8.2783, "MEAN_ANOMALY": 110.3026, "EPHEMERIS_TYPE": 0, "CLASSIFICATION_TYPE": "U", "NORAD_CAT_ID": 31862, "ELEMENT_SET_NO": 999, "REV_AT_EPOCH": 4372, "BSTAR": 0, "MEAN_MOTION_DOT": -9e-07, "MEAN_MOTION_DDOT": 0}, "tle": {"line1": "1 31862U 07032A   25346.96936691 -.00000090  00000+0  00000+0 0  9999", "line2": "2 31862   0.0079 209.5146 0000294   8.2783 110.3026  1.00271120 43721"}}, "geometry": {"type": "Point", "coordinates": [-70.2944933220994, 0.003498496772509895]}}, {"type": "Feature", "properties": {"norad_id": 32253, "name": "INTELSAT 11 (IS-11)", "group": "intelsat", "lat": 0.39327108877303496, "lon": -106.74324306472082, "alt_km": 36094.772032123255, "timestamp": "2025-12-13T20:38:50.662820+00:00", "meta": {"OBJECT_NAME": "INTELSAT 11 (IS-11)", "OBJECT_ID": "2007-044B", "EPOCH": "2025-12-13T04:13:38.758656", "MEAN_MOTION": 0.99048956, "ECCENTRICITY": 0.00088413, "INCLINATION": 3.0815, "RA_OF_ASC_NODE": 80.972, "ARG_OF_PERICENTER": 166.082, "MEAN_ANOMALY": 122.2227, "EPHEMERIS_TYPE": 0, "CLASSIFICATION_TYPE": "U", "NORAD_CAT_ID": 32253, "ELEMENT_SET_NO": 999, "REV_AT_EPOCH": 6660, "BSTAR": 0, "MEAN_MOTION_DOT": 7.7e-07, "MEAN_MOTION_DDOT": 0}, "tle": {"line1": "1 32253U 07044B   25347.17614304  .00000077  00000+0  00000+0 0  9999", "line2": "2 32253   3.0815  80.9720 0008841 166.0820 122.2227  0.99048956 66600"}}, "geometry": {"type": "Point", "coordinates": [-106.74324306472082, 0.39327108877303496]}}, {"type": "Feature", "properties": {"norad_id": 32388, "name": "HORIZONS-2", "group": "intelsat", "lat": -1.7631652663414596, "lon": -41.293372045446525, "alt_km": 35772.46497540992, "timestamp": "2025-12-13T20:38:50.662832+00:00", "meta": {"OBJECT_NAME": "HORIZONS-2", "OBJECT_ID": "2007-063B", "EPOCH": "2025-12-13T04:32:15.494208", "MEAN_MOTION": 1.00269759, "ECCENTRICITY": 0.00048699, "INCLINATION": 2.1228, "RA_OF_ASC_NODE": 82.9566, "ARG_OF_PERICENTER": 190.5254, "MEAN_ANOMALY": 162.905, "EPHEMERIS_TYPE": 0, "CLASSIFICATION_TYPE": "U", "NORAD_CAT_ID": 32388, "ELEMENT_SET_NO": 999, "REV_AT_EPOCH": 6594, "BSTAR": 0, "MEAN_MOTION_DOT": -2.4e-06, "MEAN_MOTION_DDOT": 0}, "tle": {"line1": "1 32388U 07063B   25347.18906822 -.00000240  00000+0  00000+0 0  9992", "line2": "2 32388   2.1228  82.9566 0004869 190.5254 162.9050  1.00269759 65946"}}, "geometry": {"type": "Point", "coordinates": [-41.293372045446525, -1.7631652663414596]}}, {"type": "Feature", "properties": {"norad_id": 32729, "name": "DIRECTV 11", "group": "intelsat", "lat": -0.004456444196767106, "lon": -66.69969154274705, "alt_km": 35786.99204314355, "timestamp": "2025-12-13T20:38:50.662844+00:00", "meta": {"OBJECT_NAME": "DIRECTV 11", "OBJECT_ID": "2008-013A", "EPOCH": "2025-12-12T21:34:07.285152", "MEAN_MOTION": 1.00271941, "ECCENTRICITY": 2.766e-05, "INCLINATION": 0.0293, "RA_OF_ASC_NODE": 167.0626, "ARG_OF_PERICENTER": 342.976, "MEAN_ANOMALY": 156.139, "EPHEMERIS_TYPE": 0, "CLASSIFICATION_TYPE": "U", "NORAD_CAT_ID": 32729, "ELEMENT_SET_NO": 999, "REV_AT_EPOCH": 4372, "BSTAR": 0, "MEAN_MOTION_DOT": -1.13e-06, "MEAN_MOTION_DDOT": 0}, "tle": {"line1": "1 32729U 08013A   25346.89869543 -.00000113  00000+0  00000+0 0  9991", "line2": "2 32729   0.0293 167.0626 0000276 342.9760 156.1390  1.00271941 43729"}}, "geometry": {"type": "Point", "coordinates": [-66.69969154274705, -0.004456444196767106]}}, {"type": "Feature", "properties": {"norad_id": 32951, "name": "GALAXY 18 (G-18)", "group": "intelsat", "lat": -0.0061809781108089264, "lon": -90.51877411124941, "alt_km": 35773.82319311397, "timestamp": "2025-12-13T20:38:50.662856+00:00", "meta": {"OBJECT_NAME": "GALAXY 18 (G-18)", "OBJECT_ID": "2008-024A", "EPOCH": "2025-12-13T04:05:38.557824", "MEAN_MOTION": 1.00271847, "ECCENTRICITY": 0.00028838, "INCLINATION": 0.0022, "RA_OF_ASC_NODE": 55.4008, "ARG_OF_PERICENTER": 213.196, "MEAN_ANOMALY": 111.9115, "EPHEMERIS_TYPE": 0, "CLASSIFICATION_TYPE": "U", "NORAD_CAT_ID": 32951, "ELEMENT_SET_NO": 999, "REV_AT_EPOCH": 4398, "BSTAR": 0, "MEAN_MOTION_DOT": 3.9e-07, "MEAN_MOTION_DDOT": 0}, "tle": {"line1": "1 32951U 08024A   25347.17058516  .00000039  00000+0  00000+0 0  9998", "line2": "2 32951   0.0022  55.4008 0002883 213.1960 111.9115  1.00271847 43984"}}, "geometry": {"type": "Point", "coordinates": [-90.51877411124941, -0.0061809781108089264]}}]}